[Satellite]
VERSION=1.1
NAME=SZ-13 MODULE
NICKNAME=SZ-13 MODULE
TLE1=1 52260U 21092C   22342.03030887  .00090041  00000+0  42247-3 0  9996
TLE2=2 52260  41.4750 218.1788 0014206 293.0927  66.8422 15.81979944 36743
STATUS=0
